NORAD_CAT_ID,OBJECT_NAME,OBJECT_TYPE,EPOCH,MEAN_MOTION,ECCENTRICITY,INCLINATION,RA_OF_ASC_NODE,ARG_OF_PERICENTER,MEAN_ANOMALY,BSTAR,MEAN_MOTION_DOT,MEAN_MOTION_DDOT,TLE_LINE0,TLE_LINE1,TLE_LINE2,SEMIMAJOR_AXIS,PERIOD,APOGEE,PERIGEE,DECAYED
53836.0,STARLINK-4778,PAYLOAD,2022-09-23 16:00:00,15.88100348,0.0031323,53.2173,236.2185,55.2716,35.4775,-0.004338,-0.0126004999999999,0.00044874,0 STARLINK-4778,1 53836U 22114U   22266.66667824 -.01260050  44874-3 -43380-2 0  9994,2 53836  53.2173 236.2185 0031323  55.2716  35.4775 15.88100348  1306,6685.746,90.674,328.55300000000005,286.6690000000001,0.0
53836.0,STARLINK-4778,PAYLOAD,2022-09-24 06:00:00,15.86569777,0.0025716,53.2171,233.2721,56.7592,129.4326,-0.0047342,-0.01256361,0.00044015,0 STARLINK-4778,1 53836U 22114U   22267.25001157 -.01256361  44015-3 -47342-2 0  9990,2 53836  53.2171 233.2721 0025716  56.7592 129.4326 15.86569777  1392,6690.045,90.762,329.1140000000001,294.706,0.0
53836.0,STARLINK-4778,PAYLOAD,2022-09-24 14:00:01,15.85760457,0.0022169,53.2167,231.5895,56.9439,233.8133,-0.005361,-0.0135638,0.00050239,0 STARLINK-4778,1 53836U 22114U   22267.58335648 -.01356380  50239-3 -53610-2 0  9993,2 53836  53.2167 231.5895 0022169  56.9439 233.8133 15.85760457  1305,6692.321,90.808,329.023,299.35,0.0
53836.0,STARLINK-4778,PAYLOAD,2022-09-24 22:00:00,15.84874539,0.0018655,53.2176,229.9101,55.2642,338.9151,-0.005445,-0.01162163,0.0,0 STARLINK-4778,1 53836U 22114U   22267.91667824 -.01162163  00000-0 -54450-2 0  9999,2 53836  53.2176 229.9101 0018655  55.2642 338.9151 15.84874539  1302,6694.815,90.859,329.1690000000001,304.191,0.0
53836.0,STARLINK-4778,PAYLOAD,2022-09-25 14:00:01,15.83170957,0.0011706,53.2174,226.5585,49.1364,188.8701,-0.0062666,-0.01233525,0.0,0 STARLINK-4778,1 53836U 22114U   22268.58334491 -.01233525  00000-0 -62666-2 0  9993,2 53836  53.2174 226.5585 0011706  49.1364 188.8701 15.83170957  1600,6699.6169999999975,90.957,329.324,313.639,0.0
53836.0,STARLINK-4778,PAYLOAD,2022-09-25 22:00:01,15.82289831,0.0007913999999999,53.2175,224.8849,43.77,294.6621,-0.0064169,-0.01208798,0.0,0 STARLINK-4778,1 53836U 22114U   22268.91668981 -.01208798  00000-0 -64169-2 0  9998,2 53836  53.2175 224.8849 0007914  43.7700 294.6621 15.82289831  1300,6702.104,91.007,329.273,318.665,0.0
53836.0,STARLINK-4778,PAYLOAD,2022-09-26 10:00:00,15.80997209,0.0004758,53.217,222.381,31.9256,275.0127,-0.0069188,-0.01221439,0.0,0 STARLINK-4778,1 53836U 22114U   22269.41667824 -.01221439  00000-0 -69188-2 0  9992,2 53836  53.2170 222.3810 0004758  31.9256 275.0127 15.80997209  1738,6705.755999999999,91.082,330.8119999999999,324.431,0.0
53836.0,STARLINK-4778,PAYLOAD,2022-09-26 14:00:01,15.80549988,0.000391,53.2174,221.546,24.2902,151.6575,-0.0069223999999999,-0.01198913,0.0,0 STARLINK-4778,1 53836U 22114U   22269.58334491 -.01198913  00000-0 -69224-2 0  9992,2 53836  53.2174 221.5460 0003910  24.2902 151.6575 15.80549988  1302,6707.021,91.108,331.509,326.264,0.0
53836.0,STARLINK-4778,PAYLOAD,2022-09-26 22:00:00,15.79698079,0.0003398999999999,53.2177,219.8792,304.4331,328.7348,-0.0073801,-0.01225007,0.0,0 STARLINK-4778,1 53836U 22114U   22269.91667824 -.01225007  00000-0 -73801-2 0  9999,2 53836  53.2177 219.8792 0003399 304.4331 328.7348 15.79698079  1818,6709.432,91.157,333.5780000000001,329.017,0.0
53836.0,STARLINK-4778,PAYLOAD,2022-09-27 14:00:01,15.77970112,0.0006525,53.2171,216.5519,274.3145,190.1679,-0.007983,-0.01227047,0.0,0 STARLINK-4778,1 53836U 22114U   22270.58334491 -.01227047  00000-0 -79830-2 0  9999,2 53836  53.2171 216.5519 0006525 274.3145 190.1679 15.77970112  1306,6714.33,91.256,340.576,331.814,0.0
53836.0,STARLINK-4778,PAYLOAD,2022-09-27 22:00:01,15.77049771,0.0005896,53.217,214.8909,269.7546,288.921,-0.0078572,-0.01165404,0.0,0 STARLINK-4778,1 53836U 22114U   22270.91668981 -.01165404  00000-0 -78572-2 0  9990,2 53836  53.2170 214.8909 0005896 269.7546 288.9210 15.77049771  1970,6716.941999999999,91.31,342.767,334.846,0.0
53836.0,STARLINK-4778,PAYLOAD,2022-09-28 14:00:01,15.75416655,0.0001165,53.2173,211.5782,25.0028,358.617,-0.0095131,-0.01314847,0.0,0 STARLINK-4778,1 53836U 22114U   22271.58334491 -.01314847  00000-0 -95131-2 0  9997,2 53836  53.2173 211.5782 0001165  25.0028 358.6170 15.75416655  1303,6721.583000000001,91.404,344.231,342.665,0.0
53836.0,STARLINK-4778,PAYLOAD,2022-09-28 22:00:00,15.74466456,0.0001368,53.2171,209.9238,39.2478,75.3694,-0.0087455,-0.01154844,0.0,0 STARLINK-4778,1 53836U 22114U   22271.91667824 -.01154844  00000-0 -87455-2 0  9992,2 53836  53.2171 209.9238 0001368  39.2478  75.3694 15.74466456  2138,6724.2869999999975,91.46,347.07199999999995,345.232,0.0
53836.0,STARLINK-4778,PAYLOAD,2022-09-29 06:00:00,15.73509027,0.000134,53.2174,208.2746,46.4339,158.1218,-0.0031108,-0.00421593,0.0,0 STARLINK-4778,1 53836U 22114U   22272.25001157 -.00421593  00000-0 -31108-2 0  9992,2 53836  53.2174 208.2746 0001340  46.4339 158.1218 15.73509027  2181,6727.014,91.515,349.781,347.978,0.0
53836.0,STARLINK-4778,PAYLOAD,2022-09-29 14:00:01,15.73205003,0.0001159999999999,53.2175,206.6237,63.6931,229.9733,-1.1349e-05,-2.212e-05,0.0,0 STARLINK-4778,1 53836U 22114U   22272.58334491 -.00002212  00000-0 -11349-4 0  9998,2 53836  53.2175 206.6237 0001160  63.6931 229.9733 15.73205003  1307,6727.880999999999,91.533,350.526,348.965,0.0
53836.0,STARLINK-4778,PAYLOAD,2022-09-29 22:00:00,15.73268265,0.0001069,53.2144,204.9678,63.835,318.8174,-0.00048079,-0.00067749,0.0,0 STARLINK-4778,1 53836U 22114U   22272.91667824 -.00067749  00000-0 -48079-3 0  9999,2 53836  53.2144 204.9678 0001069  63.8350 318.8174 15.73268265  1304,6727.701,91.529,350.285,348.846,0.0
53836.0,STARLINK-4778,PAYLOAD,2022-09-30 06:00:02,15.73192021,0.0001125999999999,53.2143,203.3199,54.1803,57.529,0.00025726,0.00035625,0.0,0 STARLINK-4778,1 53836U 22114U   22273.25002315  .00035625  00000-0  25726-3 0  9995,2 53836  53.2143 203.3199 0001126  54.1803  57.5290 15.73192021  2341,6727.918000000002,91.534,350.54,349.025,0.0
53836.0,STARLINK-4778,PAYLOAD,2022-09-30 14:00:01,15.73197909,0.0001054999999999,53.2146,201.6683,61.8965,138.6822,-0.00011834,-0.00017192,0.0,0 STARLINK-4778,1 53836U 22114U   22273.58334491 -.00017192  00000-0 -11834-3 0  9990,2 53836  53.2146 201.6683 0001055  61.8965 138.6822 15.73197909  1305,6727.901,91.533,350.476,349.056,0.0
53836.0,STARLINK-4778,PAYLOAD,2022-09-30 16:00:00,15.73152397,0.0001082,53.2143,201.2556,67.1717,245.6521,0.00055279,0.0007752,0.0,0 STARLINK-4778,1 53836U 22114U   22273.66667824  .00077520  00000-0  55279-3 0  9998,2 53836  53.2143 201.2556 0001082  67.1717 245.6521 15.73152397  2400,6728.031,91.536,350.624,349.168,0.0
53836.0,STARLINK-4778,PAYLOAD,2022-09-30 22:00:00,15.73228345,0.0001129,53.2145,200.0191,68.016,221.4837,0.00017209,0.00023629,0.0,0 STARLINK-4778,1 53836U 22114U   22273.91667824  .00023629  00000-0  17209-3 0  9998,2 53836  53.2145 200.0191 0001129  68.0160 221.4837 15.73228345  1305,6727.814,91.532,350.439,348.92,0.0
53836.0,STARLINK-4778,PAYLOAD,2022-10-01 14:00:01,15.73180253,0.0001035,53.215,196.7195,70.919,36.5348,0.00052116,0.00073097,0.0,0 STARLINK-4778,1 53836U 22114U   22274.58334491  .00073097  00000-0  52116-3 0  9993,2 53836  53.2150 196.7195 0001035  70.9190  36.5348 15.73180253  2552,6727.951,91.534,350.51300000000015,349.12,0.0
53836.0,STARLINK-4778,PAYLOAD,2022-10-01 22:00:00,15.73269558,0.0001208,53.2158,195.0705,75.2054,121.1647,-0.00094019,-0.00130923,0.0,0 STARLINK-4778,1 53836U 22114U   22274.91667824 -.00130923  00000-0 -94019-3 0  9991,2 53836  53.2158 195.0705 0001208  75.2054 121.1647 15.73269558  2603,6727.696999999999,91.529,350.375,348.749,0.0
53836.0,STARLINK-4778,PAYLOAD,2022-10-02 14:00:01,15.73102804,0.0001215,53.216,191.7708,79.2449,294.9737,0.00065671,0.00092176,0.0,0 STARLINK-4778,1 53836U 22114U   22275.58334491  .00092176  00000-0  65671-3 0  9993,2 53836  53.2160 191.7708 0001215  79.2449 294.9737 15.73102804  2702,6728.172,91.539,350.855,349.22,0.0
53836.0,STARLINK-4778,PAYLOAD,2022-10-02 22:00:00,15.73184779,0.0001279,53.2161,190.1222,77.0594,26.0015,0.00037358,0.00052101,0.0,0 STARLINK-4778,1 53836U 22114U   22275.91667824  .00052101  00000-0  37358-3 0  9994,2 53836  53.2161 190.1222 0001279  77.0594  26.0015 15.73184779  1303,6727.939,91.534,350.664,348.9430000000001,0.0
53836.0,STARLINK-4778,PAYLOAD,2022-10-03 14:00:01,15.73244068,8.39e-05,53.2158,186.8223,82.8304,198.1707,0.00015809,0.00021666,0.0,0 STARLINK-4778,1 53836U 22114U   22276.58334491  .00021666  00000-0  15809-3 0  9998,2 53836  53.2158 186.8223 0000839  82.8304 198.1707 15.73244068  2865,6727.77,91.531,350.199,349.07,0.0
53836.0,STARLINK-4778,PAYLOAD,2022-10-03 22:00:00,15.73285503,8.44e-05,53.216,185.1737,76.8611,293.1038,-0.00063843,-0.00089592,0.0,0 STARLINK-4778,1 53836U 22114U   22276.91667824 -.00089592  00000-0 -63843-3 0  9999,2 53836  53.2160 185.1737 0000844  76.8611 293.1038 15.73285503  1300,6727.651,91.528,350.084,348.949,0.0
53836.0,STARLINK-4778,PAYLOAD,2022-10-04 06:00:00,15.73217008,0.0001002999999999,53.2159,183.5251,70.2504,28.7077,-9.2883e-05,-0.00013643,0.0,0 STARLINK-4778,1 53836U 22114U   22277.25001157 -.00013643  00000-0 -92883-4 0  9999,2 53836  53.2159 183.5251 0001003  70.2504  28.7077 15.73217008  2972,6727.847,91.532,350.386,349.037,0.0
53836.0,STARLINK-4778,PAYLOAD,2022-10-04 14:00:01,15.73188546,0.0001022999999999,53.2163,181.8735,86.3669,101.5425,-0.00018226,-0.00026106,0.0,0 STARLINK-4778,1 53836U 22114U   22277.58334491 -.00026106  00000-0 -18226-3 0  9991,2 53836  53.2163 181.8735 0001023  86.3669 101.5425 15.73188546  1304,6727.928000000001,91.534,350.481,349.105,0.0
53836.0,STARLINK-4778,PAYLOAD,2022-10-04 22:00:00,15.73149017,0.0001262,53.2166,180.2253,83.6119,193.1852,0.00024865,0.00034343,0.0,0 STARLINK-4778,1 53836U 22114U   22277.91667824  .00034343  00000-0  24865-3 0  9993,2 53836  53.2166 180.2253 0001262  83.6119 193.1852 15.73149017  3077,6728.041,91.536,350.755,349.056,0.0
